[{"OBJECT_NAME":"STARLINK-36503","OBJECT_ID":"2026-005H","EPOCH":"2026-03-09T11:12:36.135360","MEAN_MOTION":15.27585072,"ECCENTRICITY":7.107e-5,"INCLINATION":42.9979,"RA_OF_ASC_NODE":239.131,"ARG_OF_PERICENTER":206.9075,"MEAN_ANOMALY":153.174,"EPHEMERIS_TYPE":0,"CLASSIFICATION_TYPE":"U","NORAD_CAT_ID":67411,"ELEMENT_SET_NO":999,"REV_AT_EPOCH":866,"BSTAR":0.0010101174,"MEAN_MOTION_DOT":0.00027643,"MEAN_MOTION_DDOT":0},{"OBJECT_NAME":"CZ-4B DEB","OBJECT_ID":"2010-051E","EPOCH":"2026-03-08T22:01:50.125728","MEAN_MOTION":15.23766972,"ECCENTRICITY":0.00561086,"INCLINATION":97.769,"RA_OF_ASC_NODE":240.5013,"ARG_OF_PERICENTER":301.1291,"MEAN_ANOMALY":58.4449,"EPHEMERIS_TYPE":0,"CLASSIFICATION_TYPE":"U","NORAD_CAT_ID":38184,"ELEMENT_SET_NO":999,"REV_AT_EPOCH":82066,"BSTAR":0.0024566319,"MEAN_MOTION_DOT":0.00062123,"MEAN_MOTION_DDOT":0}]
